ONEWEB-0401             
1 50481U 21132N   23317.87150673  .00000038  00000+0  63927-4 0  9991
2 50481  87.9226 163.7071 0001747  70.0304 290.1017 13.18687831 96890
ONEWEB-0402             
1 50482U 21132P   23318.14127717 -.00000002  00000+0 -38044-4 0  9991
2 50482  87.9227 163.6507 0001315  59.3279 300.7983 13.18689218 98238
ONEWEB-0403             
1 50483U 21132Q   23317.86096043  .00000072  00000+0  14893-3 0  9997
2 50483  87.9227 163.7091 0001972  79.2099 280.9255 13.18683874 96879
ONEWEB-0404             
1 50484U 21132R   23318.09882568 -.00000062  00000+0 -20987-3 0  9991
2 50484  87.8998 209.0329 0002167  79.7756 280.3616 13.11412570 92961
ONEWEB-0405             
1 50485U 21132S   23317.80570059  .00000024  00000+0  26985-4 0  9990
2 50485  87.9228 163.7119 0001779  66.3425 293.7894 13.19206670 97269
ONEWEB-0406             
1 50486U 21132T   23317.86518991  .00000093  00000+0  20332-3 0  9999
2 50486  87.9223 163.7079 0002029  86.9619 273.1746 13.18687933 96904
ONEWEB-0407             
1 50487U 21132U   23317.85885866  .00000033  00000+0  51606-4 0  9990
2 50487  87.9225 163.7173 0001703  76.4116 283.7206 13.18685379 96849
ONEWEB-0409             
1 50488U 21132V   23317.25792351 -.00000128  00000+0 -39602-3 0  9999
2 50488  87.8991 209.2145 0002082  90.2232 269.9134 13.11414307 91472
